GLOBALSTAR M075         
1 37192U 10054E   24175.93822201 -.00000110  00000+0 -32245-4 0  9991
2 37192  51.9920 192.3260 0000118 157.9982 277.0966 12.62261218630764
GLOBALSTAR M073         
1 37193U 10054F   24176.27418656 -.00000102  00000+0  12514-4 0  9992
2 37193  52.0057 104.8492 0000482  27.0501 133.9393 12.62266295632688
GLOBALSTAR M083         
1 37739U 11033A   24175.95827442 -.00000101  00000+0  14884-4 0  9998
2 37739  51.9872  55.0297 0000793  84.4177  22.3036 12.62270454601614
GLOBALSTAR M088         
1 37740U 11033B   24175.86399058 -.00000091  00000+0  71121-4 0  9992
2 37740  51.9751 321.1112 0000874 121.9771  35.9471 12.62264510597143
GLOBALSTAR M091         
1 37741U 11033C   24175.80062678 -.00000072  00000+0  17965-3 0  9996
2 37741  52.0006 284.2209 0000922 139.5861  28.9025 12.62264074597922
GLOBALSTAR M085         
1 37742U 11033D   24175.91952685 -.00000072  00000+0  17669-3 0  9996
2 37742  51.9857 235.2127 0000585 157.6831 252.8631 12.62262970598456
GLOBALSTAR M081         
1 37743U 11033E   24175.65409615 -.00000071  00000+0  18498-3 0  9998
2 37743  51.9947 238.5879 0000574 178.7455 344.0957 12.62266287598563
GLOBALSTAR M089         
1 37744U 11033F   24176.48393425 -.00000099  00000+0  29384-4 0  9999
2 37744  51.9901 190.3575 0000286 315.7073 198.4970 12.62265373599765
